satname,norad_id,inclination_deg,eccentricity,mean_motion_rev_per_day,perigee_km,apogee_km,l1,l2
STARLINK-1008,44714,53.153,0.0002323,15.46799638,424.51469641766926,427.67594275334886,1 44714U 19074B   26138.48740070  .00009980  00000+0  20414-3 0  9990,2 44714  53.1530 210.5225 0002323  28.8113 331.3023 15.46799638359616
STARLINK-1012,44718,53.1572,0.0002097,15.47015475,424.0357133603675,426.8891429605392,1 44718U 19074F   26138.87611416  .00011459  00000+0  23138-3 0  9998,2 44718  53.1572 208.9810 0002097  22.2554 337.8545 15.47015475359668
STARLINK-1017,44723,53.0467,0.000474,15.29879101,472.9244403448438,479.4223265883702,1 44723U 19074L   26138.89346868  .00027769  00000+0  95529-3 0  9996,2 44723  53.0467 206.0258 0004740 333.1076  26.9677 15.29879101359690
STARLINK-1020,44725,53.1586,0.0002849,15.5157999,410.1778908771839,414.04697500407474,1 44725U 19074N   26138.64110725  .00047497  00000+0  79066-3 0  9990,2 44725  53.1586 234.8853 0002849   6.3770 353.7275 15.51579990359269
STARLINK-1036,44741,53.042,0.0002449,15.67056895,365.67766618481255,368.9815957406572,1 44741U 19074AE  26138.90455145  .00032645  00000+0  30440-3 0  9997,2 44741  53.0420 205.1772 0002449 299.7052  60.3719 15.67056895359705
STARLINK-1039,44744,53.0605,0.0002249,15.27180485,482.70229860377276,485.78899831905073,1 44744U 19074AH  26138.49484687  .00022151  00000+0  83079-3 0  9994,2 44744  53.0605 252.8540 0002249 345.2471  14.8461 15.27180485359005
STARLINK-1042,44747,53.0413,0.0003407,15.53112607,405.3326874041668,409.95651898858523,1 44747U 19074AL  26138.92586430  .00015512  00000+0  25035-3 0  9995,2 44747  53.0413 116.8788 0003407  45.4097 314.7190 15.53112607360977
STARLINK-1043,44748,53.0481,0.0005991,15.58668789,387.4531420033227,395.56453164500635,1 44748U 19074AM  26138.85790756  .00025222  00000+0  32755-3 0  9992,2 44748  53.0481 214.7161 0005991 210.6588 149.4074 15.58668789359577
STARLINK-1046,44751,53.049,0.0006041,15.52548035,405.1892835369754,413.38985231634433,1 44751U 19074AQ  26138.53174717  .00047103  00000+0  75705-3 0  9998,2 44751  53.0490 236.7325 0006041   2.5812 357.5227 15.52548035359232
STARLINK-1047,44752,53.0678,0.0003621,15.34000642,461.4129757003284,466.36797199688954,1 44752U 19074AR  26138.82459140  .00004094  00000+0  13389-3 0  9999,2 44752  53.0678 177.9722 0003621  76.6317 283.5088 15.34000642360109
STARLINK-1048,44753,53.0426,0.0006867,15.65265208,367.84048674932365,377.11177882589436,1 44753U 19074AS  26138.42750041  .00093149  00000+0  91531-3 0  9994,2 44753  53.0426 189.2559 0006867 346.5282  13.5548 15.65265208359880
STARLINK-1063,44768,53.1572,7.91e-05,15.46758654,425.6772879059354,426.75373647336346,1 44768U 19074BH  26138.82282793  .00022403  00000+0  44755-3 0  9999,2 44768  53.1572 249.9370 0000791  33.1493 326.9565 15.46758654359103
STARLINK-1067,44771,53.0426,0.0006045,15.7162161,350.1922646156954,358.33173500646626,1 44771U 19074BL  26138.51227065  .00044079  00000+0  33837-3 0  9992,2 44771  53.0426 221.7079 0006045 313.7424  46.3092 15.71621610359441
STARLINK-1068,44772,53.0428,0.0002233,15.72443595,350.41276178637236,353.41840326973033,1 44772U 19074BM  26138.78073250  .00041332  00000+0  30710-3 0  9993,2 44772  53.0428 194.1369 0002233  55.5851 304.5377 15.72443595359843
STARLINK-1114,44927,53.0429,8.01e-05,15.62242479,380.63959121307744,381.7224339586928,1 44927U 20001P   26138.92548743  .00073271  00000+0  81487-3 0  9991,2 44927  53.0429 349.0143 0000801  47.4550 312.6531 15.62242479351034
STARLINK-1123,44930,53.1462,0.0002571,15.54844758,400.86060775653823,404.34726474595846,1 44930U 20001S   26138.93221981  .00060578  00000+0  89288-3 0  9991,2 44930  53.1462  14.6481 0002571 194.9438 165.1498 15.54844758350687
STARLINK-1094,44941,53.155,0.0001931,15.51562703,410.8516624222448,413.4740762317779,1 44941U 20001AD  26138.91260523  .00059124  00000+0  98156-3 0  9995,2 44941  53.1550 349.2626 0001931 234.1469 125.9362 15.51562703351044
STARLINK-1122,44949,53.157,0.0001708,15.51326367,411.69259392164076,414.01239593310765,1 44949U 20001AM  26138.91957398  .00062607  00000+0  10473-2 0  9991,2 44949  53.1570 349.7872 0001708 224.1868 135.9006 15.51326367351035
STARLINK-1080,44961,53.0459,0.0002396,15.5845182,390.5149818312884,393.7592971989443,1 44961U 20001AZ  26138.75428618  .00023960  00000+0  31425-3 0  9995,2 44961  53.0459 310.3661 0002396 300.9524  59.1251 15.58451820351567
STARLINK-1090,44968,53.151,8.27e-05,15.47837353,422.49135155248587,423.6162685124664,1 44968U 20001BG  26138.92451974  .00050275  00000+0  95392-3 0  9994,2 44968  53.1510 336.9841 0000827 205.4509 154.6459 15.47837353351216
STARLINK-1132,45044,53.1519,2.22e-05,15.52655755,408.8249587824739,409.1263065833655,1 45044U 20006A   26138.12726171  .00068092  00000+0  10847-2 0  9998,2 45044  53.1519 282.5705 0000222 336.8687  23.2314 15.52655755347688
STARLINK-1131,45047,53.1588,0.0001382,15.49615949,416.9094931967229,418.7879036437671,1 45047U 20006D   26138.74423983  .00053045  00000+0  94508-3 0  9993,2 45047  53.1588 311.9701 0001382 269.7139  90.3712 15.49615949347329
STARLINK-1134,45048,53.0272,0.0005824,15.53604327,402.2615101458978,410.1639206944192,1 45048U 20006E   26138.72400348  .00065384  00000+0  10065-2 0  9996,2 45048  53.0272 262.9166 0005824  10.4016 349.7113 15.53604327347991
STARLINK-1156,45054,53.1585,0.0001702,15.33202032,465.1012543478728,467.43108918754115,1 45054U 20006L   26138.86529523  .00034979  00000+0  10816-2 0  9995,2 45054  53.1585 314.5952 0001702 264.2396  95.8412 15.33202032347293
STARLINK-1166,45060,53.0474,0.0001732,15.56107575,397.76116646954233,400.10874419486936,1 45060U 20006S   26138.94688529  .00068526  00000+0  96233-3 0  9996,2 45060  53.0474 295.0906 0001732 286.0759  74.0060 15.56107575347565
STARLINK-1169,45061,53.1567,0.0003044,15.36266012,455.0820086860076,459.2433391274826,1 45061U 20006T   26138.74519435  .00038637  00000+0  10824-2 0  9995,2 45061  53.1567 314.1933 0003044 221.1336 138.9438 15.36266012347291
STARLINK-1171,45062,53.0418,0.0001618,15.71624332,353.16492538405055,355.34352718487753,1 45062U 20006U   26138.64425469  .00042990  00000+0  33040-3 0  9991,2 45062  53.0418 264.7155 0001618 241.9835 118.1018 15.71624332347961
STARLINK-1133,45064,53.1579,0.0002038,15.33274258,464.65638412332464,467.4460752457444,1 45064U 20006W   26138.44509592  .00031823  00000+0  98325-3 0  9991,2 45064  53.1579 293.3355 0002038 288.8951  71.1830 15.33274258347560
STARLINK-1167,45071,53.1577,0.000184,15.35439998,458.3557456878725,460.872038016073,1 45071U 20006AD  26138.80374913  .00031026  00000+0  89553-3 0  9994,2 45071  53.1577 291.0567 0001840 219.4184 140.6685 15.35439998347627
STARLINK-1168,45072,53.1585,0.0002621,15.33361468,463.9979245058812,467.5855119399739,1 45072U 20006AE  26138.68720572  .00050968  00000+0  15596-2 0  9998,2 45072  53.1585 292.4201 0002621 291.8308  68.2415 15.33361468347593
STARLINK-1172,45074,53.1549,0.0002381,15.36504769,454.82724924971626,458.081881753209,1 45074U 20006AG  26138.77451918  .00045571  00000+0  12639-2 0  9994,2 45074  53.1549 290.6785 0002381 232.7911 127.2875 15.36504769347625
STARLINK-1153,45080,53.1577,0.0002919,15.35536334,457.33204306773314,461.3237550758113,1 45080U 20006AN  26138.78742059  .00036969  00000+0  10608-2 0  9996,2 45080  53.1577 291.0505 0002919 239.6797 120.3917 15.35536334347626
STARLINK-1151,45081,53.0498,0.0002428,15.74755189,343.69545251515865,346.96036707535586,1 45081U 20006AP  26138.59191885  .00052100  00000+0  34913-3 0  9992,2 45081  53.0498 254.1542 0002428 279.2542  80.8202 15.74755189348107
STARLINK-1185,45087,53.1599,0.0002722,15.43674881,433.41984647506524,437.1290676722956,1 45087U 20006AV  26138.64799760  .00045521  00000+0  99729-3 0  9995,2 45087  53.1599 273.0176 0002722 305.7296  54.3458 15.43674881347863
STARLINK-1183,45088,53.1581,0.0002031,15.33222323,464.8156987279244,467.59587076708976,1 45088U 20006AW  26138.92489401  .00032824  00000+0  10153-2 0  9990,2 45088  53.1581 275.8966 0002031 311.9625  48.1204 15.33222323347847
STARLINK-1152,45096,53.0346,0.0003111,15.46499973,424.8571909401071,429.0913311667355,1 45096U 20006BE  26138.95412083  .00047384  00000+0  94225-3 0  9994,2 45096  53.0346 232.9158 0003111  14.4245 345.6850 15.46499973348433
STARLINK-1184,45098,53.0516,0.0002991,15.13385771,523.8185841037912,527.9485692127491,1 45098U 20006BG  26138.80190548  .00019995  00000+0  11210-2 0  9998,2 45098  53.0516 287.9542 0002991 351.8668   8.2275 15.13385771347642
STARLINK-1193,45100,53.0465,0.0003677,15.65878147,368.23284915267686,373.19595447356915,1 45100U 20006BJ  26138.67954630  .00036657  00000+0  35746-3 0  9992,2 45100  53.0465 248.8420 0003677 255.7724 104.2883 15.65878147348180
STARLINK-1143,45179,53.0382,0.0001598,15.81845382,324.1509355746839,326.2933291533882,1 45179U 20012B   26138.91668981  .00119350  00000+0  57346-3 0  9995,2 45179  53.0382 341.5744 0001598 292.2550 282.7675 15.81845382  5990
STARLINK-1202,45183,53.1581,0.0003117,15.3297187,464.8176245225213,469.0848525304182,1 45183U 20012F   26138.54117220  .00030728  00000+0  95895-3 0  9996,2 45183  53.1581  74.4166 0003117  92.1162 268.0197 15.32971870345656
STARLINK-1216,45185,53.1567,0.0003155,15.3323635,464.00466350168153,468.32341745822396,1 45185U 20012H   26138.52402467  .00022866  00000+0  71137-3 0  9993,2 45185  53.1567  74.3924 0003155 100.3116 259.8242 15.33236350345596
STARLINK-1225,45187,53.1556,0.000298,15.33224469,464.1597859765134,468.2390104698543,1 45187U 20012K   26138.84803432  .00036141  00000+0  11162-2 0  9999,2 45187  53.1556  73.3371 0002980  93.2488 266.8855 15.33224469345684
STARLINK-1230,45189,53.157,0.0003267,15.33132051,464.2383143457473,468.7105834664626,1 45189U 20012M   26138.53213534  .00029353  00000+0  91213-3 0  9998,2 45189  53.1570  74.8704 0003267  93.4172 266.7204 15.33132051342868
